SCS-01 D                
1 63985U 25100D   26068.75607686  .00032471  00000+0  10528-2 0  9990
2 63985  97.3730 145.4097 0006346 266.2302  93.8214 15.31902149 45621
STARLINK-34080          
1 64116U 25110W   26068.15805929  .00009919  00000+0  34707-3 0  9999
2 64116  53.1613  29.0457 0001178  71.3532 288.7597 15.30152732 45794
